{"type": "FeatureCollection", "features": [ {"type": "Feature", "properties": {"norad_id": 66889, "name": "STARLINK-35852", "group": "last-30-days", "lat": 51.33347881756, "lon": 131.87317362015796, "alt_km": 349.6073021934417, "timestamp": "2025-12-23T05:02:10.751134+00:00", "meta": {"OBJECT_NAME": "STARLINK-35852", "OBJECT_ID": "2025-283M", "EPOCH": "2025-12-22T22:00:03.000096", "MEAN_MOTION": 15.71773459, "ECCENTRICITY": 0.00013119, "INCLINATION": 53.1589, "RA_OF_ASC_NODE": 22.8715, "ARG_OF_PERICENTER": 91.4167, "MEAN_ANOMALY": 152.1325, "EPHEMERIS_TYPE": 0, "CLASSIFICATION_TYPE": "U", "NORAD_CAT_ID": 66889, "ELEMENT_SET_NO": 999, "REV_AT_EPOCH": 406, "BSTAR": -0.016341604, "MEAN_MOTION_DOT": -0.01878277, "MEAN_MOTION_DDOT": 0}, "tle": {"line1": "1 66889U 25283M   25356.91670139 -.01878277  00000+0 -16342-1 0  9992", "line2": "2 66889  53.1589  22.8715 0001311  91.4167 152.1325 15.71773459  4067"}}, "geometry": {"type": "Point", "coordinates": [131.87317362015796, 51.33347881756]}}, {"type": "Feature", "properties": {"norad_id": 66890, "name": "STARLINK-35885", "group": "last-30-days", "lat": 50.76029583912053, "lon": 134.7817465794121, "alt_km": 349.7095509648907, "timestamp": "2025-12-23T05:02:10.751144+00:00", "meta": {"OBJECT_NAME": "STARLINK-35885", "OBJECT_ID": "2025-283N", "EPOCH": "2025-12-22T22:00:03.000096", "MEAN_MOTION": 15.71776833, "ECCENTRICITY": 0.00012527, "INCLINATION": 53.1584, "RA_OF_ASC_NODE": 22.8679, "ARG_OF_PERICENTER": 104.0654, "MEAN_ANOMALY": 141.3992, "EPHEMERIS_TYPE": 0, "CLASSIFICATION_TYPE": "U", "NORAD_CAT_ID": 66890, "ELEMENT_SET_NO": 999, "REV_AT_EPOCH": 406, "BSTAR": -0.0163703, "MEAN_MOTION_DOT": -0.01881316, "MEAN_MOTION_DDOT": 0}, "tle": {"line1": "1 66890U 25283N   25356.91670139 -.01881316  00000+0 -16370-1 0  9993", "line2": "2 66890  53.1584  22.8679 0001252 104.0654 141.3992 15.71776833  4068"}}, "geometry": {"type": "Point", "coordinates": [134.7817465794121, 50.76029583912053]}}, {"type": "Feature", "properties": {"norad_id": 66891, "name": "STARLINK-35855", "group": "last-30-days", "lat": 50.116099026830156, "lon": 137.61965555589583, "alt_km": 349.77487195229605, "timestamp": "2025-12-23T05:02:10.751156+00:00", "meta": {"OBJECT_NAME": "STARLINK-35855", "OBJECT_ID": "2025-283P", "EPOCH": "2025-12-22T22:00:03.000096", "MEAN_MOTION": 15.71772652, "ECCENTRICITY": 0.00013004, "INCLINATION": 53.1587, "RA_OF_ASC_NODE": 22.8636, "ARG_OF_PERICENTER": 102.5691, "MEAN_ANOMALY": 144.8161, "EPHEMERIS_TYPE": 0, "CLASSIFICATION_TYPE": "U", "NORAD_CAT_ID": 66891, "ELEMENT_SET_NO": 999, "REV_AT_EPOCH": 406, "BSTAR": -0.016342864, "MEAN_MOTION_DOT": -0.01878336, "MEAN_MOTION_DDOT": 0}, "tle": {"line1": "1 66891U 25283P   25356.91670139 -.01878336  00000+0 -16343-1 0  9992", "line2": "2 66891  53.1587  22.8636 0001300 102.5691 144.8161 15.71772652  4064"}}, "geometry": {"type": "Point", "coordinates": [137.61965555589583, 50.116099026830156]}}, {"type": "Feature", "properties": {"norad_id": 66892, "name": "STARLINK-35883", "group": "last-30-days", "lat": 49.40410724095417, "lon": 140.37813729294058, "alt_km": 349.96083693465334, "timestamp": "2025-12-23T05:02:10.751166+00:00", "meta": {"OBJECT_NAME": "STARLINK-35883", "OBJECT_ID": "2025-283Q", "EPOCH": "2025-12-22T22:00:03.000096", "MEAN_MOTION": 15.71779022, "ECCENTRICITY": 0.0001192, "INCLINATION": 53.1587, "RA_OF_ASC_NODE": 22.8592, "ARG_OF_PERICENTER": 96.8095, "MEAN_ANOMALY": 152.4881, "EPHEMERIS_TYPE": 0, "CLASSIFICATION_TYPE": "U", "NORAD_CAT_ID": 66892, "ELEMENT_SET_NO": 999, "REV_AT_EPOCH": 400, "BSTAR": -0.016400552, "MEAN_MOTION_DOT": -0.01884425, "MEAN_MOTION_DDOT": 0}, "tle": {"line1": "1 66892U 25283Q   25356.91670139 -.01884425  00000+0 -16401-1 0  9994", "line2": "2 66892  53.1587  22.8592 0001192  96.8095 152.4881 15.71779022  4004"}}, "geometry": {"type": "Point", "coordinates": [140.37813729294058, 49.40410724095417]}}, {"type": "Feature", "properties": {"norad_id": 66893, "name": "STARLINK-36033", "group": "last-30-days", "lat": 48.62818649476679, "lon": 143.05514477658227, "alt_km": 350.09614533806507, "timestamp": "2025-12-23T05:02:10.751176+00:00", "meta": {"OBJECT_NAME": "STARLINK-36033", "OBJECT_ID": "2025-283R", "EPOCH": "2025-12-22T22:00:03.000096", "MEAN_MOTION": 15.71772014, "ECCENTRICITY": 0.00012045, "INCLINATION": 53.1588, "RA_OF_ASC_NODE": 22.8553, "ARG_OF_PERICENTER": 91.8306, "MEAN_ANOMALY": 159.3893, "EPHEMERIS_TYPE": 0, "CLASSIFICATION_TYPE": "U", "NORAD_CAT_ID": 66893, "ELEMENT_SET_NO": 999, "REV_AT_EPOCH": 406, "BSTAR": -0.016349477, "MEAN_MOTION_DOT": -0.01878869, "MEAN_MOTION_DDOT": 0}, "tle": {"line1": "1 66893U 25283R   25356.91670139 -.01878869  00000+0 -16349-1 0  9991", "line2": "2 66893  53.1588  22.8553 0001204  91.8306 159.3893 15.71772014  4066"}}, "geometry": {"type": "Point", "coordinates": [143.05514477658227, 48.62818649476679]}}, {"type": "Feature", "properties": {"norad_id": 66894, "name": "STARLINK-35718", "group": "last-30-days", "lat": 47.79343291979959, "lon": 145.64394644777136, "alt_km": 350.1835491053125, "timestamp": "2025-12-23T05:02:10.751185+00:00", "meta": {"OBJECT_NAME": "STARLINK-35718", "OBJECT_ID": "2025-283S", "EPOCH": "2025-12-22T22:00:03.000096", "MEAN_MOTION": 15.71776993, "ECCENTRICITY": 0.00012609, "INCLINATION": 53.1588, "RA_OF_ASC_NODE": 22.8521, "ARG_OF_PERICENTER": 91.2016, "MEAN_ANOMALY": 161.9285, "EPHEMERIS_TYPE": 0, "CLASSIFICATION_TYPE": "U", "NORAD_CAT_ID": 66894, "ELEMENT_SET_NO": 999, "REV_AT_EPOCH": 406, "BSTAR": -0.016370328, "MEAN_MOTION_DOT": -0.01881337, "MEAN_MOTION_DDOT": 0}, "tle": {"line1": "1 66894U 25283S   25356.91670139 -.01881337  00000+0 -16370-1 0  9990", "line2": "2 66894  53.1588  22.8521 0001260  91.2016 161.9285 15.71776993  4060"}}, "geometry": {"type": "Point", "coordinates": [145.64394644777136, 47.79343291979959]}}, {"type": "Feature", "properties": {"norad_id": 66895, "name": "STARLINK-35971", "group": "last-30-days", "lat": 45.95575981844883, "lon": 150.56983834792143, "alt_km": 350.6362986793556, "timestamp": "2025-12-23T05:02:10.751199+00:00", "meta": {"OBJECT_NAME": "STARLINK-35971", "OBJECT_ID": "2025-283T", "EPOCH": "2025-12-22T22:00:03.000096", "MEAN_MOTION": 15.71774151, "ECCENTRICITY": 9.186e-05, "INCLINATION": 53.1586, "RA_OF_ASC_NODE": 22.8425, "ARG_OF_PERICENTER": 78.1733, "MEAN_ANOMALY": 178.797, "EPHEMERIS_TYPE": 0, "CLASSIFICATION_TYPE": "U", "NORAD_CAT_ID": 66895, "ELEMENT_SET_NO": 999, "REV_AT_EPOCH": 406, "BSTAR": -0.016386254, "MEAN_MOTION_DOT": -0.01882438, "MEAN_MOTION_DDOT": 0}, "tle": {"line1": "1 66895U 25283T   25356.91670139 -.01882438  00000+0 -16386-1 0  9991", "line2": "2 66895  53.1586  22.8425 0000918  78.1733 178.7970 15.71774151  4062"}}, "geometry": {"type": "Point", "coordinates": [150.56983834792143, 45.95575981844883]}}, {"type": "Feature", "properties": {"norad_id": 66896, "name": "STARLINK-35791", "group": "last-30-days", "lat": 46.903012603845966, "lon": 148.14406084816144, "alt_km": 350.46093164623016, "timestamp": "2025-12-23T05:02:10.751209+00:00", "meta": {"OBJECT_NAME": "STARLINK-35791", "OBJECT_ID": "2025-283U", "EPOCH": "2025-12-22T22:00:03.000096", "MEAN_MOTION": 15.71778577, "ECCENTRICITY": 9.02e-05, "INCLINATION": 53.1587, "RA_OF_ASC_NODE": 22.8473, "ARG_OF_PERICENTER": 93.5748, "MEAN_ANOMALY": 161.4738, "EPHEMERIS_TYPE": 0, "CLASSIFICATION_TYPE": "U", "NORAD_CAT_ID": 66896, "ELEMENT_SET_NO": 999, "REV_AT_EPOCH": 406, "BSTAR": -0.016401289, "MEAN_MOTION_DOT": -0.01922504, "MEAN_MOTION_DDOT": 0}, "tle": {"line1": "1 66896U 25283U   25356.91670139 -.01922504  00000+0 -16401-1 0  9999", "line2": "2 66896  53.1587  22.8473 0000902  93.5748 161.4738 15.71778577  4064"}}, "geometry": {"type": "Point", "coordinates": [148.14406084816144, 46.903012603845966]}}, {"type": "Feature", "properties": {"norad_id": 66897, "name": "STARLINK-36079", "group": "last-30-days", "lat": 44.96105497977505, "lon": 152.90938958300165, "alt_km": 350.70088564107937, "timestamp": "2025-12-23T05:02:10.751221+00:00", "meta": {"OBJECT_NAME": "STARLINK-36079", "OBJECT_ID": "2025-283V", "EPOCH": "2025-12-22T22:00:03.000096", "MEAN_MOTION": 15.71775803, "ECCENTRICITY": 0.00011747, "INCLINATION": 53.159, "RA_OF_ASC_NODE": 22.8393, "ARG_OF_PERICENTER": 90.6489, "MEAN_ANOMALY": 168.2342, "EPHEMERIS_TYPE": 0, "CLASSIFICATION_TYPE": "U", "NORAD_CAT_ID": 66897, "ELEMENT_SET_NO": 999, "REV_AT_EPOCH": 406, "BSTAR": -0.016370043, "MEAN_MOTION_DOT": -0.01881153, "MEAN_MOTION_DDOT": 0}, "tle": {"line1": "1 66897U 25283V   25356.91670139 -.01881153  00000+0 -16370-1 0  9999", "line2": "2 66897  53.1590  22.8393 0001174  90.6489 168.2342 15.71775803  4067"}}, "geometry": {"type": "Point", "coordinates": [152.90938958300165, 44.96105497977505]}}, {"type": "Feature", "properties": {"norad_id": 66898, "name": "STARLINK-36065", "group": "last-30-days", "lat": 43.920574593883, "lon": 155.16440443522967, "alt_km": 350.7912646486311, "timestamp": "2025-12-23T05:02:10.751231+00:00", "meta": {"OBJECT_NAME": "STARLINK-36065", "OBJECT_ID": "2025-283W", "EPOCH": "2025-12-22T22:00:03.000096", "MEAN_MOTION": 15.71776459, "ECCENTRICITY": 0.00012414, "INCLINATION": 53.159, "RA_OF_ASC_NODE": 22.8351, "ARG_OF_PERICENTER": 97.7684, "MEAN_ANOMALY": 163.0321, "EPHEMERIS_TYPE": 0, "CLASSIFICATION_TYPE": "U", "NORAD_CAT_ID": 66898, "ELEMENT_SET_NO": 999, "REV_AT_EPOCH": 406, "BSTAR": -0.016391558, "MEAN_MOTION_DOT": -0.01883394, "MEAN_MOTION_DDOT": 0}, "tle": {"line1": "1 66898U 25283W   25356.91670139 -.01883394  00000+0 -16392-1 0  9993", "line2": "2 66898  53.1590  22.8351 0001241  97.7684 163.0321 15.71776459  4060"}}, "geometry": {"type": "Point", "coordinates": [155.16440443522967, 43.920574593883]}}]}